NORAD_CAT_ID,OBJECT_NAME,OBJECT_TYPE,EPOCH,MEAN_MOTION,ECCENTRICITY,INCLINATION,RA_OF_ASC_NODE,ARG_OF_PERICENTER,MEAN_ANOMALY,BSTAR,MEAN_MOTION_DOT,MEAN_MOTION_DDOT,TLE_LINE0,TLE_LINE1,TLE_LINE2,SEMIMAJOR_AXIS,PERIOD,APOGEE,PERIGEE,DECAYED
56800.0,STARLINK-6036,PAYLOAD,2023-11-22 08:22:41,14.98334796,0.0002408,70.0,298.2543,269.8217,90.2666,4.3902e-05,4.31e-06,0.0,0 STARLINK-6036,1 56800U 23078AK  23326.34909096  .00000431  00000-0  43902-4 0  9995,2 56800  70.0000 298.2543 0002408 269.8217  90.2666 14.98334796 27361,6950.178,96.107,573.717,570.369,0.0
56800.0,STARLINK-6036,PAYLOAD,2023-11-23 02:00:10,14.98327858,0.00027,70.0001,296.4028,271.142,88.943,4.4265e-05,4.35e-06,0.0,0 STARLINK-6036,1 56800U 23078AK  23327.08345337  .00000435  00000-0  44265-4 0  9996,2 56800  70.0001 296.4028 0002700 271.1420  88.9430 14.98327858 27473,6950.2,96.107,573.941,570.188,0.0
56800.0,STARLINK-6036,PAYLOAD,2023-11-23 08:24:41,14.98357943,0.0002501,70.0006,295.7299,265.7695,94.3178,-0.0003941,-4.795e-05,0.0,0 STARLINK-6036,1 56800U 23078AK  23327.35048412 -.00004795  00000-0 -39410-3 0  9990,2 56800  70.0006 295.7299 0002501 265.7695  94.3178 14.98357943 27515,6950.106,96.105,573.71,570.233,0.0
56800.0,STARLINK-6036,PAYLOAD,2023-11-23 22:49:55,14.98324272,0.0001837,70.0014,294.2153,256.8096,103.2858,-1.0888e-05,-2.23e-06,0.0,0 STARLINK-6036,1 56800U 23078AK  23327.95133729 -.00000223  00000-0 -10888-4 0  9993,2 56800  70.0014 294.2153 0001837 256.8096 103.2858 14.98324272 27349,6950.211,96.107,573.352,570.799,0.0
56800.0,STARLINK-6036,PAYLOAD,2023-11-24 03:38:20,14.98321355,0.0001977,70.0011,293.7104,260.3029,99.7907,-3.2598e-05,-4.82e-06,0.0,0 STARLINK-6036,1 56800U 23078AK  23328.15162065 -.00000482  00000-0 -32598-4 0  9990,2 56800  70.0011 293.7104 0001977 260.3029  99.7907 14.98321355 27632,6950.22,96.108,573.459,570.711,0.0
56800.0,STARLINK-6036,PAYLOAD,2023-11-24 08:26:44,14.9832061,0.0002034,70.0011,293.2054,259.8,100.293,-3.829e-05,-5.5e-06,0.0,0 STARLINK-6036,1 56800U 23078AK  23328.35190214 -.00000550  00000-0 -38290-4 0  9990,2 56800  70.0011 293.2054 0002034 259.8000 100.2930 14.98320610 27400,6950.222,96.108,573.501,570.673,0.0
56800.0,STARLINK-6036,PAYLOAD,2023-11-24 22:51:56,14.9833112,0.0002666,69.9995,291.6895,270.9203,89.1651,-8.6765e-06,-1.96e-06,0.0,0 STARLINK-6036,1 56800U 23078AK  23328.95273438 -.00000196  00000-0 -86765-5 0  9993,2 56800  69.9995 291.6895 0002666 270.9203  89.1651 14.98331120 27495,6950.189,96.107,573.907,570.202,0.0
56800.0,STARLINK-6036,PAYLOAD,2023-11-25 03:40:20,14.98331292,0.0002509,69.9997,291.1856,262.5769,97.5105,2.2936e-05,1.81e-06,0.0,0 STARLINK-6036,1 56800U 23078AK  23329.15301340  .00000181  00000-0  22936-4 0  9991,2 56800  69.9997 291.1856 0002509 262.5769  97.5105 14.98331292 27788,6950.189,96.107,573.798,570.31,0.0
56800.0,STARLINK-6036,PAYLOAD,2023-11-25 06:52:36,14.98335452,0.0002354,70.0001,290.8488,259.2438,100.8456,8.0623e-05,8.69e-06,0.0,0 STARLINK-6036,1 56800U 23078AK  23329.28652842  .00000869  00000-0  80623-4 0  9991,2 56800  70.0001 290.8488 0002354 259.2438 100.8456 14.98335452 27541,6950.176,96.107,573.677,570.405,0.0
56800.0,STARLINK-6036,PAYLOAD,2023-11-25 21:17:48,14.98328881,0.0002435,70.0013,289.3365,265.1204,94.9677,0.00016619,1.89e-05,0.0,0 STARLINK-6036,1 56800U 23078AK  23329.88736861  .00001890  00000-0  16619-3 0  9999,2 56800  70.0013 289.3365 0002435 265.1204  94.9677 14.98328881 27634,6950.196,96.107,573.754,570.369,0.0
56800.0,STARLINK-6036,PAYLOAD,2023-11-26 06:54:36,14.98340999,0.0002241,70.0009,288.3238,279.5031,80.5875,0.00022724,2.62e-05,0.0,0 STARLINK-6036,1 56800U 23078AK  23330.28792061  .00002620  00000-0  22724-3 0  9995,2 56800  70.0009 288.3238 0002241 279.5031  80.5875 14.98340999 27959,6950.159,96.106,573.581,570.466,0.0
56800.0,STARLINK-6036,PAYLOAD,2023-11-27 03:44:24,14.98308012,0.0002172,70.0017,286.1396,243.3275,116.7662,-0.00028693,-3.513e-05,0.0,0 STARLINK-6036,1 56800U 23078AK  23331.15583610 -.00003513  00000-0 -28693-3 0  9995,2 56800  70.0017 286.1396 0002172 243.3275 116.7662 14.98308012 28082,6950.261,96.108,573.635,570.616,0.0
56800.0,STARLINK-6036,PAYLOAD,2023-11-27 06:56:40,14.98305657,0.0002148,70.0018,285.802,249.5346,110.5583,-0.00022315,-2.753e-05,0.0,0 STARLINK-6036,1 56800U 23078AK  23331.28935831 -.00002753  00000-0 -22315-3 0  9995,2 56800  70.0018 285.8020 0002148 249.5346 110.5583 14.98305657 27842,6950.268,96.109,573.626,570.64,0.0
56800.0,STARLINK-6036,PAYLOAD,2023-11-27 21:21:52,14.98322607,0.0002433,70.0027,284.2889,254.2954,105.7937,-0.00010779,-1.378e-05,0.0,0 STARLINK-6036,1 56800U 23078AK  23331.89018646 -.00001378  00000-0 -10779-3 0  9991,2 56800  70.0027 284.2889 0002433 254.2954 105.7937 14.98322607 27936,6950.216,96.107,573.772,570.39,0.0
56800.0,STARLINK-6036,PAYLOAD,2023-11-28 02:10:16,14.98329144,0.0002066,70.0025,283.7813,255.1258,104.9672,-9.0544e-05,-1.173e-05,0.0,0 STARLINK-6036,1 56800U 23078AK  23332.09046309 -.00001173  00000-0 -90544-4 0  9993,2 56800  70.0025 283.7813 0002066 255.1258 104.9672 14.98329144 28227,6950.196,96.107,573.496,570.625,0.0
56800.0,STARLINK-6036,PAYLOAD,2023-11-28 06:58:39,14.98340986,0.0002103,70.0017,283.2752,256.9947,103.0978,-0.00018754,-2.33e-05,0.0,0 STARLINK-6036,1 56800U 23078AK  23332.29073855 -.00002330  00000-0 -18754-3 0  9999,2 56800  70.0017 283.2752 0002103 256.9947 103.0978 14.98340986 28250,6950.159,96.106,573.486,570.562,0.0
56800.0,STARLINK-6036,PAYLOAD,2023-11-28 23:00:00,14.98322977,0.0002643,70.0004,281.591,266.1457,93.94,0.00030139,3.504e-05,0.0,0 STARLINK-6036,1 56800U 23078AK  23332.95833539  .00003504  00000-0  30139-3 0  9998,2 56800  70.0004 281.5910 0002643 266.1457  93.9400 14.98322977 28090,6950.215,96.107,573.917,570.243,0.0
56800.0,STARLINK-6036,PAYLOAD,2023-11-29 07:00:40,14.98332509,0.0002394,70.0011,280.7526,276.5154,83.5732,0.00036948,4.319e-05,0.0,0 STARLINK-6036,1 56800U 23078AK  23333.29213038  .00004319  00000-0  36948-3 0  9991,2 56800  70.0011 280.7526 0002394 276.5154  83.5732 14.98332509 28404,6950.185,96.107,573.714,570.386,0.0
56800.0,STARLINK-6036,PAYLOAD,2023-11-30 03:50:25,14.98338664,0.000248,70.0012,278.5643,248.3676,111.7219,3.6764e-05,3.46e-06,0.0,0 STARLINK-6036,1 56800U 23078AK  23334.16001301  .00000346  00000-0  36764-4 0  9999,2 56800  70.0012 278.5643 0002480 248.3676 111.7219 14.98338664 28538,6950.166,96.106,573.755,570.307,0.0
56800.0,STARLINK-6036,PAYLOAD,2023-12-01 03:52:28,14.9831132,0.0002496,70.0016,276.0391,262.3821,97.7055,-0.00032313,-3.944e-05,0.0,0 STARLINK-6036,1 56800U 23078AK  23335.16143888 -.00003944  00000-0 -32313-3 0  9991,2 56800  70.0016 276.0391 0002496 262.3821  97.7055 14.98311320 28687,6950.251,96.108,573.85,570.381,0.0
56800.0,STARLINK-6036,PAYLOAD,2023-12-01 05:28:37,14.9828839,0.0002868,70.0015,275.8701,267.9686,92.1145,-0.00021377,-2.64e-05,0.0,0 STARLINK-6036,1 56800U 23078AK  23335.22820976 -.00002640  00000-0 -21377-3 0  9998,2 56800  70.0015 275.8701 0002868 267.9686  92.1145 14.98288390 28691,6950.322,96.11,574.18,570.193,0.0
56800.0,STARLINK-6036,PAYLOAD,2023-12-01 21:29:54,14.98340495,0.0002643,70.0014,274.1861,263.9924,96.0934,0.00014174,1.599e-05,0.0,0 STARLINK-6036,1 56800U 23078AK  23335.89576431  .00001599  00000-0  14174-3 0  9992,2 56800  70.0014 274.1861 0002643 263.9924  96.0934 14.98340495 28538,6950.16,96.106,573.862,570.189,0.0
56800.0,STARLINK-6036,PAYLOAD,2023-12-02 00:42:05,14.9840192,0.0002607,70.0021,273.8516,232.5628,127.5294,0.00080658,9.562e-05,0.0,0 STARLINK-6036,1 56800U 23078AK  23336.02922735  .00009562  00000-0  80658-3 0  9998,2 56800  70.0021 273.8516 0002607 232.5628 127.5294 14.98401920 28813,6949.97,96.102,573.647,570.024,0.0
56800.0,STARLINK-6036,PAYLOAD,2023-12-02 05:30:29,14.98390901,0.0002792,70.0012,273.345,265.1299,94.9541,0.00064223,7.59e-05,0.0,0 STARLINK-6036,1 56800U 23078AK  23336.22951093  .00007590  00000-0  64223-3 0  9998,2 56800  70.0012 273.3450 0002792 265.1299  94.9541 14.98390901 28847,6950.005,96.103,573.81,569.929,0.0
56800.0,STARLINK-6036,PAYLOAD,2023-12-02 21:31:34,14.98529243,0.0001911,70.0013,271.6617,276.7384,83.3557,0.0020657,0.00024768,0.0,0 STARLINK-6036,1 56800U 23078AK  23336.89692192  .00024768  00000-0  20657-2 0  9991,2 56800  70.0013 271.6617 0001911 276.7384  83.3557 14.98529243 28683,6949.577,96.094,572.77,570.114,0.0
56800.0,STARLINK-6036,PAYLOAD,2023-12-03 03:55:43,14.98761702,0.0002593,70.0025,270.9921,255.6876,104.3995,0.0043982,0.0005338,0.0,0 STARLINK-6036,1 56800U 23078AK  23337.16370336  .00053380  00000-0  43982-2 0  9993,2 56800  70.0025 270.9921 0002593 255.6876 104.3995 14.98761702 28986,6948.858,96.079,572.525,568.921,0.0
56800.0,STARLINK-6036,PAYLOAD,2023-12-03 05:31:50,14.98769995,0.000275,70.0019,270.823,261.5926,98.4922,0.0043817,0.0005319,0.0,0 STARLINK-6036,1 56800U 23078AK  23337.23044135  .00053190  00000-0  43817-2 0  9992,2 56800  70.0019 270.8230 0002750 261.5926  98.4922 14.98769995 28736,6948.833,96.079,572.609,568.787,0.0
56800.0,STARLINK-6036,PAYLOAD,2023-12-03 18:19:53,14.99488875,0.0003669,70.0006,269.4715,243.5063,116.5721,0.01034,0.00129421,0.0,0 STARLINK-6036,1 56800U 23078AK  23337.76381624  .00129421  00000-0  10340-1 0  9992,2 56800  70.0006 269.4715 0003669 243.5063 116.5721 14.99488875 29079,6946.611,96.033,571.025,565.928,0.0
56800.0,STARLINK-6036,PAYLOAD,2023-12-04 06:00:00,14.98307443,0.0002825,70.0014,268.2482,274.7415,180.3517,0.0046105,0.00055322,0.0,0 STARLINK-6036,1 56800U 23078AK  23338.25001157  .00055322  00000-0  46105-2 0  9994,2 56800  70.0014 268.2482 0002825 274.7415 180.3517 14.98307443 29146,6950.263,96.108,574.091,570.164,0.0
56800.0,STARLINK-6036,PAYLOAD,2023-12-04 08:00:01,14.98332741,0.00028,70.0012,268.0381,274.8523,269.603,0.00099649,0.00011818,0.0,0 STARLINK-6036,1 56800U 23078AK  23338.33334491  .00011818  00000-0  99649-3 0  9997,2 56800  70.0012 268.0381 0002800 274.8523 269.6030 14.98332741  5700,6950.184,96.107,573.995,570.103,0.0
